{"type": "FeatureCollection", "features": [ {"type": "Feature", "properties": {"norad_id": 33492, "name": "GOSAT (IBUKI)", "group": "resource", "lat": -62.47567876874526, "lon": -92.83866585298182, "alt_km": 676.6834740465847, "timestamp": "2025-12-20T11:30:28.027801+00:00", "meta": {"OBJECT_NAME": "GOSAT (IBUKI)", "OBJECT_ID": "2009-002A", "EPOCH": "2025-12-20T03:51:21.295296", "MEAN_MOTION": 14.67538618, "ECCENTRICITY": 9.97e-05, "INCLINATION": 98.0771, "RA_OF_ASC_NODE": 102.6608, "ARG_OF_PERICENTER": 101.0453, "MEAN_ANOMALY": 259.0864, "EPHEMERIS_TYPE": 0, "CLASSIFICATION_TYPE": "U", "NORAD_CAT_ID": 33492, "ELEMENT_SET_NO": 999, "REV_AT_EPOCH": 90520, "BSTAR": 0.00011013, "MEAN_MOTION_DOT": 5.76e-06, "MEAN_MOTION_DDOT": 0}, "tle": {"line1": "1 33492U 09002A   25354.16066314  .00000576  00000+0  11013-3 0  9994", "line2": "2 33492  98.0771 102.6608 0000997 101.0453 259.0864 14.67538618905206"}}, "geometry": {"type": "Point", "coordinates": [-92.83866585298182, -62.47567876874526]}}, {"type": "Feature", "properties": {"norad_id": 35681, "name": "DEIMOS-1", "group": "resource", "lat": 12.30793659452377, "lon": -23.583411983255676, "alt_km": 646.8844669262189, "timestamp": "2025-12-20T11:30:28.027812+00:00", "meta": {"OBJECT_NAME": "DEIMOS-1", "OBJECT_ID": "2009-041A", "EPOCH": "2025-12-20T04:14:19.017600", "MEAN_MOTION": 14.74963441, "ECCENTRICITY": 0.00026, "INCLINATION": 97.7143, "RA_OF_ASC_NODE": 154.4332, "ARG_OF_PERICENTER": 67.8548, "MEAN_ANOMALY": 292.2937, "EPHEMERIS_TYPE": 0, "CLASSIFICATION_TYPE": "U", "NORAD_CAT_ID": 35681, "ELEMENT_SET_NO": 999, "REV_AT_EPOCH": 88049, "BSTAR": 8.5242e-05, "MEAN_MOTION_DOT": 5.26e-06, "MEAN_MOTION_DDOT": 0}, "tle": {"line1": "1 35681U 09041A   25354.17660900  .00000526  00000+0  85242-4 0  9992", "line2": "2 35681  97.7143 154.4332 0002600  67.8548 292.2937 14.74963441880490"}}, "geometry": {"type": "Point", "coordinates": [-23.583411983255676, 12.30793659452377]}}, {"type": "Feature", "properties": {"norad_id": 35682, "name": "DUBAISAT-1", "group": "resource", "lat": 81.49474784140119, "lon": 14.766392138309229, "alt_km": 645.2175164239325, "timestamp": "2025-12-20T11:30:28.027823+00:00", "meta": {"OBJECT_NAME": "DUBAISAT-1", "OBJECT_ID": "2009-041B", "EPOCH": "2025-12-19T22:03:33.976800", "MEAN_MOTION": 14.74622186, "ECCENTRICITY": 0.000927, "INCLINATION": 97.9798, "RA_OF_ASC_NODE": 124.4935, "ARG_OF_PERICENTER": 288.7349, "MEAN_ANOMALY": 71.2853, "EPHEMERIS_TYPE": 0, "CLASSIFICATION_TYPE": "U", "NORAD_CAT_ID": 35682, "ELEMENT_SET_NO": 999, "REV_AT_EPOCH": 87867, "BSTAR": 0.00014158, "MEAN_MOTION_DOT": 8.94e-06, "MEAN_MOTION_DDOT": 0}, "tle": {"line1": "1 35682U 09041B   25353.91914325  .00000894  00000+0  14158-3 0  9992", "line2": "2 35682  97.9798 124.4935 0009270 288.7349  71.2853 14.74622186878675"}}, "geometry": {"type": "Point", "coordinates": [14.766392138309229, 81.49474784140119]}}, {"type": "Feature", "properties": {"norad_id": 35931, "name": "OCEANSAT-2", "group": "resource", "lat": -16.115907854469825, "lon": -3.310998299653862, "alt_km": 891.0253470411681, "timestamp": "2025-12-20T11:30:28.027834+00:00", "meta": {"OBJECT_NAME": "OCEANSAT-2", "OBJECT_ID": "2009-051A", "EPOCH": "2025-12-20T04:43:20.591040", "MEAN_MOTION": 13.99623133, "ECCENTRICITY": 0.0016026, "INCLINATION": 98.2217, "RA_OF_ASC_NODE": 354.0408, "ARG_OF_PERICENTER": 25.5184, "MEAN_ANOMALY": 334.677, "EPHEMERIS_TYPE": 0, "CLASSIFICATION_TYPE": "U", "NORAD_CAT_ID": 35931, "ELEMENT_SET_NO": 999, "REV_AT_EPOCH": 85429, "BSTAR": -6.6368e-05, "MEAN_MOTION_DOT": -1.35e-06, "MEAN_MOTION_DDOT": 0}, "tle": {"line1": "1 35931U 09051A   25354.19676610 -.00000135  00000+0 -66368-4 0  9994", "line2": "2 35931  98.2217 354.0408 0016026  25.5184 334.6770 13.99623133854294"}}, "geometry": {"type": "Point", "coordinates": [-3.310998299653862, -16.115907854469825]}}, {"type": "Feature", "properties": {"norad_id": 35946, "name": "WORLDVIEW-2 (WV-2)", "group": "resource", "lat": 80.46059174178562, "lon": 2.8890130138770953, "alt_km": 755.6709934674145, "timestamp": "2025-12-20T11:30:28.027844+00:00", "meta": {"OBJECT_NAME": "WORLDVIEW-2 (WV-2)", "OBJECT_ID": "2009-055A", "EPOCH": "2025-12-20T04:25:49.234368", "MEAN_MOTION": 14.37726999, "ECCENTRICITY": 0.0004935, "INCLINATION": 98.478, "RA_OF_ASC_NODE": 65.167, "ARG_OF_PERICENTER": 52.4511, "MEAN_ANOMALY": 307.7124, "EPHEMERIS_TYPE": 0, "CLASSIFICATION_TYPE": "U", "NORAD_CAT_ID": 35946, "ELEMENT_SET_NO": 999, "REV_AT_EPOCH": 84992, "BSTAR": 5.1872e-05, "MEAN_MOTION_DOT": 1.12e-06, "MEAN_MOTION_DDOT": 0}, "tle": {"line1": "1 35946U 09055A   25354.18459762  .00000112  00000+0  51872-4 0  9997", "line2": "2 35946  98.4780  65.1670 0004935  52.4511 307.7124 14.37726999849922"}}, "geometry": {"type": "Point", "coordinates": [2.8890130138770953, 80.46059174178562]}}, {"type": "Feature", "properties": {"norad_id": 36036, "name": "SMOS", "group": "resource", "lat": 2.6172636345872964, "lon": -0.19796374194784933, "alt_km": 762.0018582805997, "timestamp": "2025-12-20T11:30:28.027854+00:00", "meta": {"OBJECT_NAME": "SMOS", "OBJECT_ID": "2009-059A", "EPOCH": "2025-12-20T02:20:51.634176", "MEAN_MOTION": 14.39747368, "ECCENTRICITY": 0.0001083, "INCLINATION": 98.438, "RA_OF_ASC_NODE": 179.0374, "ARG_OF_PERICENTER": 83.3735, "MEAN_ANOMALY": 276.7577, "EPHEMERIS_TYPE": 0, "CLASSIFICATION_TYPE": "U", "NORAD_CAT_ID": 36036, "ELEMENT_SET_NO": 999, "REV_AT_EPOCH": 84768, "BSTAR": 0.00010329, "MEAN_MOTION_DOT": 2.8e-06, "MEAN_MOTION_DDOT": 0}, "tle": {"line1": "1 36036U 09059A   25354.09781984  .00000280  00000+0  10329-3 0  9993", "line2": "2 36036  98.4380 179.0374 0001083  83.3735 276.7577 14.39747368847680"}}, "geometry": {"type": "Point", "coordinates": [-0.19796374194784933, 2.6172636345872964]}}, {"type": "Feature", "properties": {"norad_id": 36110, "name": "YAOGAN-7", "group": "resource", "lat": -20.57348111435658, "lon": -120.7542225846567, "alt_km": 640.0758390358469, "timestamp": "2025-12-20T11:30:28.027864+00:00", "meta": {"OBJECT_NAME": "YAOGAN-7", "OBJECT_ID": "2009-069A", "EPOCH": "2025-12-20T03:28:34.500864", "MEAN_MOTION": 14.77742358, "ECCENTRICITY": 0.0023362, "INCLINATION": 98.0296, "RA_OF_ASC_NODE": 235.8752, "ARG_OF_PERICENTER": 256.0159, "MEAN_ANOMALY": 103.8453, "EPHEMERIS_TYPE": 0, "CLASSIFICATION_TYPE": "U", "NORAD_CAT_ID": 36110, "ELEMENT_SET_NO": 999, "REV_AT_EPOCH": 86318, "BSTAR": 6.7749e-05, "MEAN_MOTION_DOT": 4.34e-06, "MEAN_MOTION_DDOT": 0}, "tle": {"line1": "1 36110U 09069A   25354.14484376  .00000434  00000+0  67749-4 0  9998", "line2": "2 36110  98.0296 235.8752 0023362 256.0159 103.8453 14.77742358863181"}}, "geometry": {"type": "Point", "coordinates": [-120.7542225846567, -20.57348111435658]}}, {"type": "Feature", "properties": {"norad_id": 36605, "name": "TANDEM-X", "group": "resource", "lat": -62.54394065828765, "lon": 14.321911730873813, "alt_km": 516.5505007701622, "timestamp": "2025-12-20T11:30:28.027875+00:00", "meta": {"OBJECT_NAME": "TANDEM-X", "OBJECT_ID": "2010-030A", "EPOCH": "2025-12-19T12:04:27.806304", "MEAN_MOTION": 15.19152689, "ECCENTRICITY": 0.0001806, "INCLINATION": 97.4444, "RA_OF_ASC_NODE": 358.7845, "ARG_OF_PERICENTER": 78.9569, "MEAN_ANOMALY": 281.1868, "EPHEMERIS_TYPE": 0, "CLASSIFICATION_TYPE": "U", "NORAD_CAT_ID": 36605, "ELEMENT_SET_NO": 999, "REV_AT_EPOCH": 85936, "BSTAR": 3.4902e-05, "MEAN_MOTION_DOT": 6.66e-06, "MEAN_MOTION_DDOT": 0}, "tle": {"line1": "1 36605U 10030A   25353.50309961  .00000666  00000+0  34902-4 0  9994", "line2": "2 36605  97.4444 358.7845 0001806  78.9569 281.1868 15.19152689859365"}}, "geometry": {"type": "Point", "coordinates": [14.321911730873813, -62.54394065828765]}}, {"type": "Feature", "properties": {"norad_id": 36795, "name": "CARTOSAT-2B", "group": "resource", "lat": -65.08945162950205, "lon": 60.39057112041943, "alt_km": 645.0123042422192, "timestamp": "2025-12-20T11:30:28.027885+00:00", "meta": {"OBJECT_NAME": "CARTOSAT-2B", "OBJECT_ID": "2010-035A", "EPOCH": "2025-12-20T03:41:13.116192", "MEAN_MOTION": 14.78733485, "ECCENTRICITY": 0.0012791, "INCLINATION": 97.7847, "RA_OF_ASC_NODE": 42.9433, "ARG_OF_PERICENTER": 54.6946, "MEAN_ANOMALY": 305.5459, "EPHEMERIS_TYPE": 0, "CLASSIFICATION_TYPE": "U", "NORAD_CAT_ID": 36795, "ELEMENT_SET_NO": 999, "REV_AT_EPOCH": 83339, "BSTAR": 3.9233e-05, "MEAN_MOTION_DOT": 2.38e-06, "MEAN_MOTION_DDOT": 0}, "tle": {"line1": "1 36795U 10035A   25354.15362403  .00000238  00000+0  39233-4 0  9998", "line2": "2 36795  97.7847  42.9433 0012791  54.6946 305.5459 14.78733485833390"}}, "geometry": {"type": "Point", "coordinates": [60.39057112041943, -65.08945162950205]}}, {"type": "Feature", "properties": {"norad_id": 36834, "name": "YAOGAN-10", "group": "resource", "lat": 1.7199128903182432, "lon": -165.51804366736786, "alt_km": 617.7052921830737, "timestamp": "2025-12-20T11:30:28.027895+00:00", "meta": {"OBJECT_NAME": "YAOGAN-10", "OBJECT_ID": "2010-038A", "EPOCH": "2025-12-20T04:38:10.915296", "MEAN_MOTION": 14.84634889, "ECCENTRICITY": 0.0001436, "INCLINATION": 97.9134, "RA_OF_ASC_NODE": 13.9585, "ARG_OF_PERICENTER": 78.9942, "MEAN_ANOMALY": 9.8346, "EPHEMERIS_TYPE": 0, "CLASSIFICATION_TYPE": "U", "NORAD_CAT_ID": 36834, "ELEMENT_SET_NO": 999, "REV_AT_EPOCH": 83064, "BSTAR": 0.00017542, "MEAN_MOTION_DOT": 1.429e-05, "MEAN_MOTION_DDOT": 0}, "tle": {"line1": "1 36834U 10038A   25354.19318189  .00001429  00000+0  17542-3 0  9992", "line2": "2 36834  97.9134  13.9585 0001436  78.9942   9.8346 14.84634889830649"}}, "geometry": {"type": "Point", "coordinates": [-165.51804366736786, 1.7199128903182432]}}]}